{
  "type": "FeatureCollection",
  "features": [
    {
      "type": "Feature",
      "properties": {
        "norad_id": 46271,
        "name": "COSMOS 2251 DEB",
        "group": "cosmos-2251-debris",
        "lat": -72.02437907623299,
        "lon": -7.237849900364534,
        "alt_km": 734.9460168416026,
        "timestamp": "2025-12-25T07:00:34.446710+00:00",
        "meta_object_name": "COSMOS 2251 DEB",
        "meta_object_id": "1993-036BWT",
        "meta_epoch": "2025-12-23T10:43:26.670144",
        "meta_mean_motion": 14.51452008,
        "meta_eccentricity": 0.00396452,
        "meta_inclination": 74.0466,
        "meta_ra_of_asc_node": 58.0745,
        "meta_arg_of_pericenter": 177.4947,
        "meta_mean_anomaly": 182.6421,
        "meta_ephemeris_type": 0,
        "meta_classification_type": "U",
        "meta_norad_cat_id": 46271,
        "meta_element_set_no": 999,
        "meta_rev_at_epoch": 84797,
        "meta_bstar": 0.00025039909,
        "meta_mean_motion_dot": 9.82e-06,
        "meta_mean_motion_ddot": 0,
        "tle_line1": "1 46271U 93036BWT 25357.44683646  .00000982  00000+0  25040-3 0  9996",
        "tle_line2": "2 46271  74.0466  58.0745 0039645 177.4947 182.6421 14.51452008847973"
      },
      "geometry": {
        "type": "Point",
        "coordinates": [
          -7.237849900364534,
          -72.02437907623299
        ]
      }
    },
    {
      "type": "Feature",
      "properties": {
        "norad_id": 46430,
        "name": "COSMOS 2251 DEB",
        "group": "cosmos-2251-debris",
        "lat": -17.541583831506852,
        "lon": -32.69136879732682,
        "alt_km": 726.2663314573601,
        "timestamp": "2025-12-25T07:00:34.446720+00:00",
        "meta_object_name": "COSMOS 2251 DEB",
        "meta_object_id": "1993-036BWU",
        "meta_epoch": "2025-12-22T16:14:06.887040",
        "meta_mean_motion": 14.51442901,
        "meta_eccentricity": 0.01029275,
        "meta_inclination": 73.9145,
        "meta_ra_of_asc_node": 337.5005,
        "meta_arg_of_pericenter": 256.0795,
        "meta_mean_anomaly": 102.8901,
        "meta_ephemeris_type": 0,
        "meta_classification_type": "U",
        "meta_norad_cat_id": 46430,
        "meta_element_set_no": 999,
        "meta_rev_at_epoch": 79827,
        "meta_bstar": 0.0019695835,
        "meta_mean_motion_dot": 8.403e-05,
        "meta_mean_motion_ddot": 0,
        "tle_line1": "1 46430U 93036BWU 25356.67646860  .00008403  00000+0  19696-2 0  9999",
        "tle_line2": "2 46430  73.9145 337.5005 0102927 256.0795 102.8901 14.51442901798271"
      },
      "geometry": {
        "type": "Point",
        "coordinates": [
          -32.69136879732682,
          -17.541583831506852
        ]
      }
    },
    {
      "type": "Feature",
      "properties": {
        "norad_id": 46432,
        "name": "COSMOS 2251 DEB",
        "group": "cosmos-2251-debris",
        "lat": -26.914422358807414,
        "lon": 83.07083634633757,
        "alt_km": 1319.2545568028254,
        "timestamp": "2025-12-25T07:00:34.446730+00:00",
        "meta_object_name": "COSMOS 2251 DEB",
        "meta_object_id": "1993-036BWW",
        "meta_epoch": "2025-12-22T01:03:47.474208",
        "meta_mean_motion": 13.36654939,
        "meta_eccentricity": 0.04738658,
        "meta_inclination": 73.8725,
        "meta_ra_of_asc_node": 96.6323,
        "meta_arg_of_pericenter": 212.6525,
        "meta_mean_anomaly": 332.3153,
        "meta_ephemeris_type": 0,
        "meta_classification_type": "U",
        "meta_norad_cat_id": 46432,
        "meta_element_set_no": 999,
        "meta_rev_at_epoch": 67090,
        "meta_bstar": 0.00093620994,
        "meta_mean_motion_dot": 9e-06,
        "meta_mean_motion_ddot": 0,
        "tle_line1": "1 46432U 93036BWW 25356.04429947  .00000900  00000+0  93621-3 0  9992",
        "tle_line2": "2 46432  73.8725  96.6323 0473865 212.6525 332.3153 13.36654939670909"
      },
      "geometry": {
        "type": "Point",
        "coordinates": [
          83.07083634633757,
          -26.914422358807414
        ]
      }
    },
    {
      "type": "Feature",
      "properties": {
        "norad_id": 47045,
        "name": "COSMOS 2251 DEB",
        "group": "cosmos-2251-debris",
        "lat": -49.496918985913155,
        "lon": 106.49615675981426,
        "alt_km": 752.759528681825,
        "timestamp": "2025-12-25T07:00:34.446740+00:00",
        "meta_object_name": "COSMOS 2251 DEB",
        "meta_object_id": "1993-036BWZ",
        "meta_epoch": "2025-12-22T15:55:55.342272",
        "meta_mean_motion": 14.38905258,
        "meta_eccentricity": 0.00303733,
        "meta_inclination": 74.058,
        "meta_ra_of_asc_node": 130.8857,
        "meta_arg_of_pericenter": 270.255,
        "meta_mean_anomaly": 108.4261,
        "meta_ephemeris_type": 0,
        "meta_classification_type": "U",
        "meta_norad_cat_id": 47045,
        "meta_element_set_no": 999,
        "meta_rev_at_epoch": 7948,
        "meta_bstar": 8.0309913e-05,
        "meta_mean_motion_dot": 2.22e-06,
        "meta_mean_motion_ddot": 0,
        "tle_line1": "1 47045U 93036BWZ 25356.66383498  .00000222  00000+0  80310-4 0  9990",
        "tle_line2": "2 47045  74.0580 130.8857 0030373 270.2550 108.4261 14.38905258 79480"
      },
      "geometry": {
        "type": "Point",
        "coordinates": [
          106.49615675981426,
          -49.496918985913155
        ]
      }
    },
    {
      "type": "Feature",
      "properties": {
        "norad_id": 47048,
        "name": "COSMOS 2251 DEB",
        "group": "cosmos-2251-debris",
        "lat": 55.335390604091444,
        "lon": 90.88370623786533,
        "alt_km": 618.1666211777747,
        "timestamp": "2025-12-25T07:00:34.446751+00:00",
        "meta_object_name": "COSMOS 2251 DEB",
        "meta_object_id": "1993-036BXC",
        "meta_epoch": "2025-12-21T05:13:53.078880",
        "meta_mean_motion": 14.5236804,
        "meta_eccentricity": 0.013255,
        "meta_inclination": 73.9787,
        "meta_ra_of_asc_node": 303.1415,
        "meta_arg_of_pericenter": 128.8028,
        "meta_mean_anomaly": 299.2168,
        "meta_ephemeris_type": 0,
        "meta_classification_type": "U",
        "meta_norad_cat_id": 47048,
        "meta_element_set_no": 999,
        "meta_rev_at_epoch": 59813,
        "meta_bstar": 0.00086716,
        "meta_mean_motion_dot": 3.933e-05,
        "meta_mean_motion_ddot": 0,
        "tle_line1": "1 47048U 93036BXC 25355.21797545  .00003933  00000+0  86716-3 0  9992",
        "tle_line2": "2 47048  73.9787 303.1415 0132550 128.8028 299.2168 14.52368040598134"
      },
      "geometry": {
        "type": "Point",
        "coordinates": [
          90.88370623786533,
          55.335390604091444
        ]
      }
    },
    {
      "type": "Feature",
      "properties": {
        "norad_id": 47051,
        "name": "COSMOS 2251 DEB",
        "group": "cosmos-2251-debris",
        "lat": -13.211970693977678,
        "lon": -13.082811500775856,
        "alt_km": 962.5884555990142,
        "timestamp": "2025-12-25T07:00:34.446761+00:00",
        "meta_object_name": "COSMOS 2251 DEB",
        "meta_object_id": "1993-036BXF",
        "meta_epoch": "2025-12-13T06:55:53.868288",
        "meta_mean_motion": 13.67117141,
        "meta_eccentricity": 0.03401033,
        "meta_inclination": 74.1001,
        "meta_ra_of_asc_node": 182.6908,
        "meta_arg_of_pericenter": 296.1774,
        "meta_mean_anomaly": 246.9893,
        "meta_ephemeris_type": 0,
        "meta_classification_type": "U",
        "meta_norad_cat_id": 47051,
        "meta_element_set_no": 999,
        "meta_rev_at_epoch": 59945,
        "meta_bstar": 0.0019326179,
        "meta_mean_motion_dot": 2.391e-05,
        "meta_mean_motion_ddot": 0,
        "tle_line1": "1 47051U 93036BXF 25347.28881792  .00002391  00000+0  19326-2 0  9991",
        "tle_line2": "2 47051  74.1001 182.6908 0340103 296.1774 246.9893 13.67117141599458"
      },
      "geometry": {
        "type": "Point",
        "coordinates": [
          -13.082811500775856,
          -13.211970693977678
        ]
      }
    },
    {
      "type": "Feature",
      "properties": {
        "norad_id": 47052,
        "name": "COSMOS 2251 DEB",
        "group": "cosmos-2251-debris",
        "lat": 67.41985593559434,
        "lon": 93.86853002354347,
        "alt_km": 757.5897357435952,
        "timestamp": "2025-12-25T07:00:34.446771+00:00",
        "meta_object_name": "COSMOS 2251 DEB",
        "meta_object_id": "1993-036BXG",
        "meta_epoch": "2025-12-24T16:17:22.199424",
        "meta_mean_motion": 14.35501409,
        "meta_eccentricity": 0.00585143,
        "meta_inclination": 74.0496,
        "meta_ra_of_asc_node": 318.4427,
        "meta_arg_of_pericenter": 29.3671,
        "meta_mean_anomaly": 147.8065,
        "meta_ephemeris_type": 0,
        "meta_classification_type": "U",
        "meta_norad_cat_id": 47052,
        "meta_element_set_no": 999,
        "meta_rev_at_epoch": 61960,
        "meta_bstar": 0.00031599751,
        "meta_mean_motion_dot": 9.01e-06,
        "meta_mean_motion_ddot": 0,
        "tle_line1": "1 47052U 93036BXG 25358.67872916  .00000901  00000+0  31600-3 0  9990",
        "tle_line2": "2 47052  74.0496 318.4427 0058514  29.3671 147.8065 14.35501409619605"
      },
      "geometry": {
        "type": "Point",
        "coordinates": [
          93.86853002354347,
          67.41985593559434
        ]
      }
    }
  ]
}